[{"OBJECT_NAME":"SWARM B","OBJECT_ID":"2013-067A","EPOCH":"2026-03-09T22:20:48.706656","MEAN_MOTION":15.27862638,"ECCENTRICITY":0.00036996,"INCLINATION":87.749,"RA_OF_ASC_NODE":12.4162,"ARG_OF_PERICENTER":86.3179,"MEAN_ANOMALY":273.8493,"EPHEMERIS_TYPE":0,"CLASSIFICATION_TYPE":"U","NORAD_CAT_ID":39451,"ELEMENT_SET_NO":999,"REV_AT_EPOCH":66808,"BSTAR":0.00020534236,"MEAN_MOTION_DOT":5.616e-5,"MEAN_MOTION_DDOT":0},{"OBJECT_NAME":"STARLINK-35906","OBJECT_ID":"2025-299L","EPOCH":"2026-03-09T07:14:01.951872","MEAN_MOTION":15.28438054,"ECCENTRICITY":0.00030071,"INCLINATION":42.9986,"RA_OF_ASC_NODE":171.4614,"ARG_OF_PERICENTER":286.1637,"MEAN_ANOMALY":73.8884,"EPHEMERIS_TYPE":0,"CLASSIFICATION_TYPE":"U","NORAD_CAT_ID":67112,"ELEMENT_SET_NO":999,"REV_AT_EPOCH":1305,"BSTAR":0.0013806493,"MEAN_MOTION_DOT":0.00038947,"MEAN_MOTION_DDOT":0}]
